ONEWEB-0709             
1 55172U 23004AJ  24181.48062908  .00000656  00000+0  18149-2 0  9993
2 55172  87.8962 163.9332 0001605  53.9705 306.1572 13.11416365 71801
ONEWEB-0710             
1 55173U 23004AK  24181.60744280  .00000113  00000+0  25842-3 0  9995
2 55173  87.9172 148.7527 0001905  84.0552 276.0797 13.17647150 73081
ONEWEB-0711             
1 55174U 23004AL  24181.45179598 -.00000307  00000+0 -90209-3 0  9999
2 55174  87.8965 163.9082 0001849 113.7013 246.4309 13.11417893 71761
ONEWEB-0713             
1 55175U 23004AM  24181.47046168  .00000480  00000+0  13190-2 0  9991
2 55175  87.8963 163.9123 0001893  96.8292 263.3051 13.11419114 71754
ONEWEB-0715             
1 55176U 23004AN  24181.46536414  .00000266  00000+0  71568-3 0  9995
2 55176  87.8964 163.9137 0001665  82.0267 278.1049 13.11417719 71791
ONEWEB-0716             
1 55177U 23004AP  24181.60097624  .00000095  00000+0  21250-3 0  9990
2 55177  87.9172 148.7457 0002259  84.6768 275.4621 13.17650134 73080
ONEWEB-0717             
1 55178U 23004AQ  24181.43132345  .00000066  00000+0  13596-3 0  9994
2 55178  87.9171 148.7433 0001362 107.1409 252.9872 13.17650050 73110
ONEWEB-0719             
1 55179U 23004AR  24181.44263918  .00000074  00000+0  15743-3 0  9992
2 55179  87.9172 148.7276 0002309  90.2650 269.8746 13.17647257 73065
ONEWEB-0530             
1 55796U 23029A   24181.59788296  .00000037  00000+0  58993-4 0  9995
2 55796  87.9208  57.2463 0001727  99.9741 260.1587 13.20773627 66426
ONEWEB-0534             
1 55797U 23029B   24181.58525967  .00000037  00000+0  58502-4 0  9995
2 55797  87.9207  57.2557 0002052  82.2278 277.9088 13.20769834 66429
ONEWEB-0556             
1 55798U 23029C   24181.59159686  .00000168  00000+0  38074-3 0  9994
2 55798  87.9205  57.2480 0002522  98.2361 261.9058 13.20770067 66425
ONEWEB-0562             
1 55799U 23029D   24181.57894892  .00000026  00000+0  31610-4 0  9991
2 55799  87.9206  57.2412 0002184 111.9379 248.1987 13.20772764 66422
ONEWEB-0563             
1 55800U 23029E   24181.57263371 -.00000051  00000+0 -15716-3 0  9994
2 55800  87.9205  57.2575 0002166  86.6859 273.4522 13.20772708 66418
ONEWEB-0564             
1 55801U 23029F   24181.56631791 -.00000026  00000+0 -94748-4 0  9994
2 55801  87.9207  57.2440 0001624  92.8920 267.2399 13.20774488 66429
ONEWEB-0638             
1 55802U 23029G   24181.45011608  .00000250  00000+0  63880-3 0  9991
2 55802  87.8961  72.5512 0002537  85.8192 274.3227 13.14505933 65106
ONEWEB-0639             
1 55803U 23029H   24181.50177925  .00000044  00000+0  76794-4 0  9993
2 55803  87.9154  87.7914 0003119  57.8004 302.3431 13.19723811 64249
ONEWEB-0640             
1 55804U 23029J   24181.61187128  .00000058  00000+0  12184-3 0  9999
2 55804  87.8959  72.5146 0002549  85.5540 274.5881 13.14505340 65149
ONEWEB-0641             
1 55805U 23029K   24181.49704873 -.00000019  00000+0 -79627-4 0  9993
2 55805  87.9153  87.7741 0002162  71.2820 288.8547 13.19727185 64256
ONEWEB-0642             
1 55806U 23029L   24181.49231150  .00000009  00000+0 -89423-5 0  9991
2 55806  87.9157  87.7980 0002671  55.8462 304.2924 13.19724602 64243
ONEWEB-0643             
1 55807U 23029M   24181.42950897 -.00000160  00000+0 -46545-3 0  9996
2 55807  87.8961  72.5282 0002010  48.2789 311.8513 13.14503346 65095
ONEWEB-0644             
1 55808U 23029N   24181.48756883  .00000030  00000+0  43446-4 0  9994
2 55808  87.9160  87.7954 0002324  62.2133 297.9235 13.19726399 64240
ONEWEB-0645             
1 55809U 23029P   24181.48361999  .00000027  00000+0  34703-4 0  9997
2 55809  87.9156  87.7972 0002559  73.2626 286.8787 13.19727467 64241
ONEWEB-0646             
1 55810U 23029Q   24181.43780331  .00000064  00000+0  12729-3 0  9993
2 55810  87.9154  87.8056 0002025  69.6470 290.4880 13.19730894 64220
ONEWEB-0648             
1 55811U 23029R   24181.24555397  .00000087  00000+0  19905-3 0  9993
2 55811  87.8964  72.5361 0002879  63.2098 296.9326 13.14505094 65079
ONEWEB-0649             
1 55812U 23029S   24181.47652790  .00000401  00000+0  96868-3 0  9997
2 55812  87.9152  87.7933 0002297  69.7349 290.4030 13.19724268 64269
ONEWEB-0650             
1 55813U 23029T   24181.47177473  .00000064  00000+0  12659-3 0  9999
2 55813  87.9156  87.7963 0002100  68.1299 292.0057 13.19727276 64233
ONEWEB-0652             
1 55814U 23029U   24181.60708062  .00003819  00000+0  10258-1 0  9991
2 55814  87.8964  72.4759 0002201  85.2658 274.8723 13.14532381 65094
ONEWEB-0653             
1 55815U 23029V   24181.43901113 -.00000251  00000+0 -71222-3 0  9994
2 55815  87.8963  72.4895 0002129  86.1409 273.9964 13.14503105 65109
ONEWEB-0654             
1 55816U 23029W   24181.43425265 -.00000375  00000+0 -10447-2 0  9992
2 55816  87.8960  72.5003 0001818  93.8483 266.2855 13.14502844 65125
ONEWEB-0656             
1 55817U 23029X   24181.63576175 -.00000078  00000+0 -22440-3 0  9999
2 55817  87.9207  57.1723 0001313  97.1508 262.9774 13.20769167 66432
ONEWEB-0657             
1 55818U 23029Y   24181.46703423  .00000072  00000+0  14779-3 0  9997
2 55818  87.9156  87.8025 0001064  71.0022 289.1226 13.19726668 64243
ONEWEB-0658             
1 55819U 23029Z   24181.46230012  .00000051  00000+0  95421-4 0  9998
2 55819  87.9155  87.7390 0002311  62.9425 297.1943 13.19727737 64253
ONEWEB-0660             
1 55820U 23029AA  24181.25982534 -.00000113  00000+0 -33908-3 0  9992
2 55820  87.8962  72.5097 0002430  77.3095 282.8306 13.14501807 65080
ONEWEB-0661             
1 55821U 23029AB  24181.59919325  .00000117  00000+0  28226-3 0  9997
2 55821  87.8961  72.5089 0002412  81.5120 278.6283 13.14504120 65119
ONEWEB-0662             
1 55822U 23029AC  24181.63407325 -.00000068  00000+0 -21865-3 0  9994
2 55822  87.8963  72.5097 0002297  74.9663 285.1721 13.14510435 65161
ONEWEB-0663             
1 55823U 23029AD  24181.62860773 -.00000054  00000+0 -16451-3 0  9994
2 55823  87.9205  57.2343 0002284  76.3464 283.7923 13.20789474 66423
ONEWEB-0664             
1 55824U 23029AE  24181.62314284  .00000010  00000+0 -69061-5 0  9994
2 55824  87.9206  57.2489 0002250  91.7821 268.3570 13.20772680 66425
ONEWEB-0665             
1 55825U 23029AF  24181.21541743  .00000203  00000+0  51435-3 0  9999
2 55825  87.8960  72.5603 0002287  77.5582 282.5803 13.14505965 65087
ONEWEB-0666             
1 55826U 23029AG  24181.61682425  .00000036  00000+0  56873-4 0  9993
2 55826  87.9207  57.2407 0001560  91.3389 268.7922 13.20770189 66434
ONEWEB-0667             
1 55827U 23029AH  24181.61052182  .00000015  00000+0  41961-5 0  9995
2 55827  87.9206  57.1755 0002225  83.7993 276.3394 13.20773267 66421
ONEWEB-0669             
1 55828U 23029AJ  24181.60578746  .00000008  00000+0 -13373-4 0  9992
2 55828  87.9205  57.2139 0001921 105.6217 254.5129 13.20771193 66423
ONEWEB-0670             
1 55829U 23029AK  24181.42158387 -.00000197  00000+0 -56532-3 0  9991
2 55829  87.8966  72.5252 0002412  85.0202 275.1203 13.14502633 65137
ONEWEB-0671             
1 55830U 23029AL  24181.45755540  .00000147  00000+0  33599-3 0  9991
2 55830  87.9153  87.8025 0002263  80.6800 279.4589 13.19724701 64235
ONEWEB-0672             
1 55831U 23029AM  24181.60104142  .00000040  00000+0  66391-4 0  9994
2 55831  87.9206  57.1987 0001566  85.5766 274.5546 13.20773214 66429
ONEWEB-0673             
1 55832U 23029AN  24181.43385831 -.00000015  00000+0 -69892-4 0  9995
2 55832  87.9153  87.7745 0002279  77.9422 282.1966 13.19727808 64232
ONEWEB-0674             
1 55833U 23029AP  24181.23763223  .00000211  00000+0  53587-3 0  9998
2 55833  87.8961  72.5670 0002371  88.0635 272.0766 13.14505749 65094
ONEWEB-0675             
1 55834U 23029AQ  24181.44966813  .00000096  00000+0  20675-3 0  9995
2 55834  87.9158  87.8047 0001693  67.3865 292.7447 13.19726464 64258
ONEWEB-0720             
1 55835U 23029AR  24181.44176363  .00000119  00000+0  26564-3 0  9998
2 55835  87.9155  87.8067 0002405  69.8799 290.2592 13.19727843 64170
ONEWEB-0537             
1 56046U 23043A   24181.55530597 -.00000068  00000+0 -21253-3 0  9999
2 56046  87.9096  11.6306 0001492  88.2745 271.8557 13.16595431 65441
ONEWEB-0538             
1 56047U 23043B   24181.54897508 -.00000069  00000+0 -21524-3 0  9999
2 56047  87.9097  11.6513 0001773  79.4591 280.6740 13.16595244 64540
ONEWEB-0546             
1 56048U 23043C   24181.61230620  .00000019  00000+0  15291-4 0  9992
2 56048  87.9100  11.6029 0001148 110.6381 249.4873 13.16595412 64546
ONEWEB-0547             
1 56049U 23043D   24181.57179828 -.00000015  00000+0 -66868-4 0  9994
2 56049  87.9279  26.8351 0001807  77.8738 282.2598 13.21826703 64334
ONEWEB-0548             
1 56050U 23043E   24181.56163527 -.00000056  00000+0 -18068-3 0  9997
2 56050  87.9097  11.6562 0002345  98.7092 261.4304 13.16596094 64530
ONEWEB-0549             
1 56051U 23043F   24181.56311053 -.00000014  00000+0 -64635-4 0  9993
2 56051  87.9280  26.8369 0001922  81.3156 278.8196 13.21823980 63428
ONEWEB-0550             
1 56052U 23043G   24181.62618866 -.00000003  00000+0 -37884-4 0  9997
2 56052  87.9277  26.8317 0002032  87.2875 272.8492 13.21824096 63437
ONEWEB-0551             
1 56053U 23043H   24181.55434221 -.00000131  00000+0 -38284-3 0  9997
2 56053  87.9031  42.0442 0001959  75.8747 284.2601 13.15548111 62042
ONEWEB-0552             
1 56054U 23043J   24181.61989497 -.00000012  00000+0 -61660-4 0  9998
2 56054  87.9277  26.8426 0002196  84.3860 275.7524 13.21826448 63434
ONEWEB-0553             
1 56055U 23043K   24181.54262711 -.00000021  00000+0 -88047-4 0  9992
2 56055  87.9098  11.6486 0001463  94.7261 265.4037 13.16596380 64541
ONEWEB-0554             
1 56056U 23043L   24181.52998183  .00000069  00000+0  14784-3 0  9996
2 56056  87.9100  11.6728 0002450  96.6222 263.5188 13.16595425 64523
